{
"type": "FeatureCollection",
"name": "gateway_hs",
"crs": { "type": "name", "properties": { "name": "urn:ogc:def:crs:OGC:1.3:CRS84" } },
"features": [
{ "type": "Feature", "properties": { "SCHID": "00160505", "NAME": "Attleboro High School", "ADDRESS": "1 Blue Pride Way", "TOWN_MAIL": "Attleboro", "TOWN": "ATTLEBORO", "ZIPCODE": "02703", "PHONE": "508-222-5150", "GRADES": "09,10,11,12", "TYPE": "SEC", "TYPE_DESC": "Public Secondary", "DIST_NAME": "Attleboro", "DIST_CODE": "00160000", "MA_ADDR_ID": 4494416, "TYPE_DESC2": null, "NAME_lower": "attleboro high school", "city": "Attleboro", "school_code_dese": "00160505", "lon": -71.303790882478822, "lat": 41.939120906783415 }, "geometry": { "type": "Point", "coordinates": [ -71.303790882478822, 41.939120906783415 ] } },
{ "type": "Feature", "properties": { "SCHID": "00200005", "NAME": "West Barnstable Elementary School", "ADDRESS": "2463 Main Street", "TOWN_MAIL": "West Barnstable", "TOWN": "BARNSTABLE", "ZIPCODE": "02668", "PHONE": "508-362-4949", "GRADES": "K,01,02,03", "TYPE": "ELE", "TYPE_DESC": "Public Elementary", "DIST_NAME": "Barnstable", "DIST_CODE": "00200000", "MA_ADDR_ID": 1234261, "TYPE_DESC2": null, "NAME_lower": "west barnstable elementary school", "city": "Barnstable", "school_code_dese": "00200505", "lon": -70.327243216787039, "lat": 41.698815538421471 }, "geometry": { "type": "Point", "coordinates": [ -70.327243216787039, 41.698815538421471 ] } },
{ "type": "Feature", "properties": { "SCHID": "00440400", "NAME": "Brockton Therapeutic Day School", "ADDRESS": "596 Summer Street", "TOWN_MAIL": "Brockton", "TOWN": "BROCKTON", "ZIPCODE": "02302", "PHONE": "508-562-6224", "GRADES": "K,01,02,03,04,05,06,07,08,09,10,11,12", "TYPE": "SEC", "TYPE_DESC": "Public Secondary", "DIST_NAME": "Brockton", "DIST_CODE": "00440000", "MA_ADDR_ID": 3304818, "TYPE_DESC2": null, "NAME_lower": "brockton therapeutic day school", "city": "Brockton", "school_code_dese": "00440505", "lon": -71.003704322754047, "lat": 42.062572345467863 }, "geometry": { "type": "Point", "coordinates": [ -71.003704322754047, 42.062572345467863 ] } },
{ "type": "Feature", "properties": { "SCHID": "00570505", "NAME": "Chelsea High School", "ADDRESS": "299 Everett Avenue", "TOWN_MAIL": "Chelsea", "TOWN": "CHELSEA", "ZIPCODE": "02150", "PHONE": "617-466-5000", "GRADES": "09,10,11,12", "TYPE": "SEC", "TYPE_DESC": "Public Secondary", "DIST_NAME": "Chelsea", "DIST_CODE": "00570000", "MA_ADDR_ID": 3686222, "TYPE_DESC2": null, "NAME_lower": "chelsea high school", "city": "Chelsea", "school_code_dese": "00570505", "lon": -71.040054143764792, "lat": 42.400072557826881 }, "geometry": { "type": "Point", "coordinates": [ -71.040054143764792, 42.400072557826881 ] } },
{ "type": "Feature", "properties": { "SCHID": "00610510", "NAME": "Chicopee Comprehensive High School", "ADDRESS": "617 Montgomery Street", "TOWN_MAIL": "Chicopee", "TOWN": "CHICOPEE", "ZIPCODE": "01020", "PHONE": "413-594-3534", "GRADES": "09,10,11,12", "TYPE": "SEC", "TYPE_DESC": "Public Secondary", "DIST_NAME": "Chicopee", "DIST_CODE": "00610000", "MA_ADDR_ID": 129721, "TYPE_DESC2": null, "NAME_lower": "chicopee comprehensive high school", "city": "Chicopee", "school_code_dese": "00610510", "lon": -72.592045988529804, "lat": 42.177150366185494 }, "geometry": { "type": "Point", "coordinates": [ -72.592045988529804, 42.177150366185494 ] } },
{ "type": "Feature", "properties": { "SCHID": "00930505", "NAME": "Everett High School", "ADDRESS": "100 Elm Street", "TOWN_MAIL": "Everett", "TOWN": "EVERETT", "ZIPCODE": "02149", "PHONE": "617-394-2490", "GRADES": "09,10,11,12", "TYPE": "SEC", "TYPE_DESC": "Public Secondary", "DIST_NAME": "Everett", "DIST_CODE": "00930000", "MA_ADDR_ID": 3505036, "TYPE_DESC2": null, "NAME_lower": "everett high school", "city": "Everett", "school_code_dese": "00930505", "lon": -71.043686730942213, "lat": 42.414457766466093 }, "geometry": { "type": "Point", "coordinates": [ -71.043686730942213, 42.414457766466093 ] } },
{ "type": "Feature", "properties": { "SCHID": "00950130", "NAME": "Spencer Borden School", "ADDRESS": "1400 President Avenue", "TOWN_MAIL": "Fall River", "TOWN": "FALL RIVER", "ZIPCODE": "02720", "PHONE": "508-675-8202", "GRADES": "PK,K,01,02,03,04,05", "TYPE": "ELE", "TYPE_DESC": "Public Elementary", "DIST_NAME": "Fall River", "DIST_CODE": "00950000", "MA_ADDR_ID": 3942667, "TYPE_DESC2": null, "NAME_lower": "spencer borden school", "city": "Fall River", "school_code_dese": "00950505", "lon": -71.13110640630056, "lat": 41.7133257762084 }, "geometry": { "type": "Point", "coordinates": [ -71.13110640630056, 41.7133257762084 ] } },
{ "type": "Feature", "properties": { "SCHID": "00970505", "NAME": "Fitchburg High School", "ADDRESS": "140 Arn-How Farm Road", "TOWN_MAIL": "Fitchburg", "TOWN": "FITCHBURG", "ZIPCODE": "01420", "PHONE": "978-345-3240", "GRADES": "09,10,11,12", "TYPE": "SEC", "TYPE_DESC": "Public Secondary", "DIST_NAME": "Fitchburg", "DIST_CODE": "00970000", "MA_ADDR_ID": 1344805, "TYPE_DESC2": null, "NAME_lower": "fitchburg high school", "city": "Fitchburg", "school_code_dese": "00970505", "lon": -71.807525468983144, "lat": 42.621560923980127 }, "geometry": { "type": "Point", "coordinates": [ -71.807525468983144, 42.621560923980127 ] } },
{ "type": "Feature", "properties": { "SCHID": "01280505", "NAME": "Haverhill High School", "ADDRESS": "137 Monument Street", "TOWN_MAIL": "Haverhill", "TOWN": "HAVERHILL", "ZIPCODE": "01832", "PHONE": "978-374-5700", "GRADES": "09,10,11,12", "TYPE": "SEC", "TYPE_DESC": "Public Secondary", "DIST_NAME": "Haverhill", "DIST_CODE": "01280000", "MA_ADDR_ID": 2224400, "TYPE_DESC2": null, "NAME_lower": "haverhill high school", "city": "Haverhill", "school_code_dese": "01280505", "lon": -71.10647788750255, "lat": 42.787104835985161 }, "geometry": { "type": "Point", "coordinates": [ -71.10647788750255, 42.787104835985161 ] } },
{ "type": "Feature", "properties": { "SCHID": "04530005", "NAME": "Holyoke Community Charter School", "ADDRESS": "2200 Northampton Street", "TOWN_MAIL": "Holyoke", "TOWN": "HOLYOKE", "ZIPCODE": "01040", "PHONE": "413-533-0111", "GRADES": "K,01,02,03,04,05,06,07,08", "TYPE": "CHA", "TYPE_DESC": "Charter", "DIST_NAME": "Holyoke Community Charter", "DIST_CODE": "04530000", "MA_ADDR_ID": 228236, "TYPE_DESC2": null, "NAME_lower": "holyoke community charter school", "city": "Holyoke", "school_code_dese": "01370505", "lon": -72.628545826768374, "lat": 42.185768799779687 }, "geometry": { "type": "Point", "coordinates": [ -72.628545826768374, 42.185768799779687 ] } },
{ "type": "Feature", "properties": { "SCHID": "01490515", "NAME": "Lawrence High School", "ADDRESS": "70-71 North Parish Road", "TOWN_MAIL": "Lawrence", "TOWN": "LAWRENCE", "ZIPCODE": "01843", "PHONE": "978-975-2750", "GRADES": "09,10,11,12", "TYPE": "SEC", "TYPE_DESC": "Public Secondary", "DIST_NAME": "Lawrence", "DIST_CODE": "01490000", "MA_ADDR_ID": 2106654, "TYPE_DESC2": null, "NAME_lower": "lawrence high school", "city": "Lawrence", "school_code_dese": "01490515", "lon": -71.145527282094264, "lat": 42.690480858637819 }, "geometry": { "type": "Point", "coordinates": [ -71.145527282094264, 42.690480858637819 ] } },
{ "type": "Feature", "properties": { "SCHID": "01530505", "NAME": "Leominster High School", "ADDRESS": "122 Granite Street", "TOWN_MAIL": "Leominster", "TOWN": "LEOMINSTER", "ZIPCODE": "01453", "PHONE": "978-534-7715", "GRADES": "09,10,11,12", "TYPE": "SEC", "TYPE_DESC": "Public Secondary", "DIST_NAME": "Leominster", "DIST_CODE": "01530000", "MA_ADDR_ID": 1593614, "TYPE_DESC2": null, "NAME_lower": "leominster high school", "city": "Leominster", "school_code_dese": "01530505", "lon": -71.778031161600254, "lat": 42.531473230230112 }, "geometry": { "type": "Point", "coordinates": [ -71.778031161600254, 42.531473230230112 ] } },
{ "type": "Feature", "properties": { "SCHID": "04580505", "NAME": "Lowell Middlesex Academy Charter School", "ADDRESS": "67 Middle Street", "TOWN_MAIL": "Lowell", "TOWN": "LOWELL", "ZIPCODE": "01852", "PHONE": "978-656-3165", "GRADES": "09,10,11,12", "TYPE": "CHA", "TYPE_DESC": "Charter", "DIST_NAME": "Lowell Middlesex Academy Charter", "DIST_CODE": "04580000", "MA_ADDR_ID": 1997359, "TYPE_DESC2": null, "NAME_lower": "lowell middlesex academy charter school", "city": "Lowell", "school_code_dese": "01600505", "lon": -71.309702447723851, "lat": 42.64520825698871 }, "geometry": { "type": "Point", "coordinates": [ -71.309702447723851, 42.64520825698871 ] } },
{ "type": "Feature", "properties": { "SCHID": "01630075", "NAME": "Lynn Woods School", "ADDRESS": "31 Trevett Avenue", "TOWN_MAIL": "Lynn", "TOWN": "LYNN", "ZIPCODE": "01904", "PHONE": "781-477-7433", "GRADES": "K,01,02,03,04,05", "TYPE": "ELE", "TYPE_DESC": "Public Elementary", "DIST_NAME": "Lynn", "DIST_CODE": "01630000", "MA_ADDR_ID": 3793478, "TYPE_DESC2": null, "NAME_lower": "lynn woods school", "city": "Lynn", "school_code_dese": "01630510", "lon": -70.971379071685405, "lat": 42.495973224526168 }, "geometry": { "type": "Point", "coordinates": [ -70.971379071685405, 42.495973224526168 ] } },
{ "type": "Feature", "properties": { "SCHID": "01650049", "NAME": "Malden Early Learning Center", "ADDRESS": "240 Mountain Avenue", "TOWN_MAIL": "Malden", "TOWN": "MALDEN", "ZIPCODE": "02148", "PHONE": "781-397-7025", "GRADES": "PK", "TYPE": "ELE", "TYPE_DESC": "Public Elementary", "DIST_NAME": "Malden", "DIST_CODE": "01650000", "MA_ADDR_ID": 3028475, "TYPE_DESC2": null, "NAME_lower": "malden early learning center", "city": "Malden", "school_code_dese": "01650505", "lon": -71.063374524096517, "lat": 42.431535745030558 }, "geometry": { "type": "Point", "coordinates": [ -71.063374524096517, 42.431535745030558 ] } },
{ "type": "Feature", "properties": { "SCHID": "01810505", "NAME": "Methuen High School", "ADDRESS": "1 Ranger Road", "TOWN_MAIL": "Methuen", "TOWN": "METHUEN", "ZIPCODE": "01844", "PHONE": "978-722-6040", "GRADES": "09,10,11,12", "TYPE": "SEC", "TYPE_DESC": "Public Secondary", "DIST_NAME": "Methuen", "DIST_CODE": "01810000", "MA_ADDR_ID": 2061584, "TYPE_DESC2": null, "NAME_lower": "methuen high school", "city": "Methuen", "school_code_dese": "01810505", "lon": -71.171743513841804, "lat": 42.732553392029764 }, "geometry": { "type": "Point", "coordinates": [ -71.171743513841804, 42.732553392029764 ] } },
{ "type": "Feature", "properties": { "SCHID": "02010505", "NAME": "New Bedford High School", "ADDRESS": "230 Hathaway Blvd", "TOWN_MAIL": "New Bedford", "TOWN": "NEW BEDFORD", "ZIPCODE": "02740", "PHONE": "508-997-4511", "GRADES": "09,10,11,12", "TYPE": "SEC", "TYPE_DESC": "Public Secondary", "DIST_NAME": "New Bedford", "DIST_CODE": "02010000", "MA_ADDR_ID": 4068634, "TYPE_DESC2": null, "NAME_lower": "new bedford high school", "city": "New Bedford", "school_code_dese": "02010505", "lon": -70.946793713227223, "lat": 41.644595577727451 }, "geometry": { "type": "Point", "coordinates": [ -70.946793713227223, 41.644595577727451 ] } },
{ "type": "Feature", "properties": { "SCHID": "02290510", "NAME": "Peabody Veterans Memorial High School", "ADDRESS": "485 Lowell Street", "TOWN_MAIL": "Peabody", "TOWN": "PEABODY", "ZIPCODE": "01960", "PHONE": "978-536-4500", "GRADES": "09,10,11,12", "TYPE": "SEC", "TYPE_DESC": "Public Secondary", "DIST_NAME": "Peabody", "DIST_CODE": "02290000", "MA_ADDR_ID": 3716230, "TYPE_DESC2": null, "NAME_lower": "peabody veterans memorial high school", "city": "Peabody", "school_code_dese": "02290510", "lon": -70.974966062154451, "lat": 42.54424679051295 }, "geometry": { "type": "Point", "coordinates": [ -70.974966062154451, 42.54424679051295 ] } },
{ "type": "Feature", "properties": { "SCHID": "02360510", "NAME": "Taconic High School", "ADDRESS": "96 Valentine Road", "TOWN_MAIL": "Pittsfield", "TOWN": "PITTSFIELD", "ZIPCODE": "01201", "PHONE": "413-448-9600", "GRADES": "09,10,11,12", "TYPE": "SEC", "TYPE_DESC": "Public Secondary", "DIST_NAME": "Pittsfield", "DIST_CODE": "02360000", "MA_ADDR_ID": 189825, "TYPE_DESC2": null, "NAME_lower": "taconic high school", "city": "Pittsfield", "school_code_dese": "02360510", "lon": -73.273810912812422, "lat": 42.459857477612452 }, "geometry": { "type": "Point", "coordinates": [ -73.273810912812422, 42.459857477612452 ] } },
{ "type": "Feature", "properties": { "SCHID": "02430510", "NAME": "North Quincy High School", "ADDRESS": "316 Hancock Street", "TOWN_MAIL": "Quincy", "TOWN": "QUINCY", "ZIPCODE": "02171", "PHONE": "617-984-8744", "GRADES": "09,10,11,12", "TYPE": "SEC", "TYPE_DESC": "Public Secondary", "DIST_NAME": "Quincy", "DIST_CODE": "02430000", "MA_ADDR_ID": 4055957, "TYPE_DESC2": null, "NAME_lower": "north quincy high school", "city": "Quincy", "school_code_dese": "02430510", "lon": -71.028713885465407, "lat": 42.27748917940918 }, "geometry": { "type": "Point", "coordinates": [ -71.028713885465407, 42.27748917940918 ] } },
{ "type": "Feature", "properties": { "SCHID": "02480505", "NAME": "Revere High School", "ADDRESS": "101 School Street", "TOWN_MAIL": "Revere", "TOWN": "REVERE", "ZIPCODE": "02151", "PHONE": "781-286-8222", "GRADES": "09,10,11,12", "TYPE": "SEC", "TYPE_DESC": "Public Secondary", "DIST_NAME": "Revere", "DIST_CODE": "02480000", "MA_ADDR_ID": 3536050, "TYPE_DESC2": null, "NAME_lower": "revere high school", "city": "Revere", "school_code_dese": "02480505", "lon": -71.007126632034613, "lat": 42.412328286009078 }, "geometry": { "type": "Point", "coordinates": [ -71.007126632034613, 42.412328286009078 ] } },
{ "type": "Feature", "properties": { "SCHID": "04850485", "NAME": "Salem Academy Charter School", "ADDRESS": "45 Congress Street", "TOWN_MAIL": "Salem", "TOWN": "SALEM", "ZIPCODE": "01970", "PHONE": "978-744-2105", "GRADES": "06,07,08,09,10,11,12", "TYPE": "CHA", "TYPE_DESC": "Charter", "DIST_NAME": "Salem Academy Charter", "DIST_CODE": "04850000", "MA_ADDR_ID": 3882257, "TYPE_DESC2": null, "NAME_lower": "salem academy charter school", "city": "Salem", "school_code_dese": "02580505", "lon": -70.886205659630278, "lat": 42.515802251200064 }, "geometry": { "type": "Point", "coordinates": [ -70.886205659630278, 42.515802251200064 ] } },
{ "type": "Feature", "properties": { "SCHID": "02810205", "NAME": "The Springfield Renaissance School an Expeditionary Learning School", "ADDRESS": "1170 Carew Street", "TOWN_MAIL": "Springfield", "TOWN": "SPRINGFIELD", "ZIPCODE": "01104", "PHONE": "413-750-2929", "GRADES": "06,07,08,09,10,11,12", "TYPE": "SEC", "TYPE_DESC": "Public Secondary", "DIST_NAME": "Springfield", "DIST_CODE": "02810000", "MA_ADDR_ID": 581639, "TYPE_DESC2": null, "NAME_lower": "the springfield renaissance school an expeditionary learning school", "city": "Springfield", "school_code_dese": "02810500", "lon": -72.574013419418833, "lat": 42.132840419228373 }, "geometry": { "type": "Point", "coordinates": [ -72.574013419418833, 42.132840419228373 ] } },
{ "type": "Feature", "properties": { "SCHID": "02930010", "NAME": "East Taunton Elementary School", "ADDRESS": "58R Stevens Street", "TOWN_MAIL": "East Taunton", "TOWN": "TAUNTON", "ZIPCODE": "02718", "PHONE": "508-821-1330", "GRADES": "PK,K,01,02,03,04", "TYPE": "ELE", "TYPE_DESC": "Public Elementary", "DIST_NAME": "Taunton", "DIST_CODE": "02930000", "MA_ADDR_ID": 2674706, "TYPE_DESC2": null, "NAME_lower": "east taunton elementary school", "city": "Taunton", "school_code_dese": "02930505", "lon": -71.041058971867585, "lat": 41.871227877976118 }, "geometry": { "type": "Point", "coordinates": [ -71.041058971867585, 41.871227877976118 ] } },
{ "type": "Feature", "properties": { "SCHID": "03250505", "NAME": "Westfield High School", "ADDRESS": "177 Montgomery Road", "TOWN_MAIL": "Westfield", "TOWN": "WESTFIELD", "ZIPCODE": "01085", "PHONE": "413-572-6466", "GRADES": "09,10,11,12", "TYPE": "SEC", "TYPE_DESC": "Public Secondary", "DIST_NAME": "Westfield", "DIST_CODE": "03250000", "MA_ADDR_ID": 971800, "TYPE_DESC2": null, "NAME_lower": "westfield high school", "city": "Westfield", "school_code_dese": "03250505", "lon": -72.753774257977582, "lat": 42.147226959639859 }, "geometry": { "type": "Point", "coordinates": [ -72.753774257977582, 42.147226959639859 ] } },
{ "type": "Feature", "properties": { "SCHID": "03480520", "NAME": "South High Community School", "ADDRESS": "170 Apricot Street", "TOWN_MAIL": "Worcester", "TOWN": "WORCESTER", "ZIPCODE": "01603", "PHONE": "508-799-3325", "GRADES": "09,10,11,12", "TYPE": "SEC", "TYPE_DESC": "Public Secondary", "DIST_NAME": "Worcester", "DIST_CODE": "03480000", "MA_ADDR_ID": 1397421, "TYPE_DESC2": null, "NAME_lower": "south high community school", "city": "Worcester", "school_code_dese": "03480520", "lon": -71.862833361852083, "lat": 42.244167360444926 }, "geometry": { "type": "Point", "coordinates": [ -71.862833361852083, 42.244167360444926 ] } }
]
}
