{
"type": "FeatureCollection",
"name": "lynn_schools",
"crs": { "type": "name", "properties": { "name": "urn:ogc:def:crs:OGC:1.3:CRS84" } },
"features": [
{ "type": "Feature", "properties": { "SCHID": "01630060", "NAME": "Ingalls School", "ADDRESS": "1 Collins Street Terrace", "TOWN_MAIL": "Lynn", "TOWN": "LYNN", "ZIPCODE": "01902", "PHONE": "781-477-7400", "GRADES": "K,01,02,03,04,05", "TYPE": "ELE", "TYPE_DESC": "Public Elementary", "DIST_NAME": "Lynn", "DIST_CODE": "01630000", "MA_ADDR_ID": 3784558, "TYPE_DESC2": null, "lon": -70.936625745992885, "lat": 42.471588142755877, "DIST_CODE_8": "01630000", "ORG_CODE": "01630060", "ORG_NAME": "Ingalls", "SY": 2026.0, "TOTAL_CNT": 620.0, "EL_PCT": 0.719, "LI_PCT": 0.852, "SWD_PCT": 0.148, "HN_PCT": 0.969, "HL_PCT": 0.837, "BAA_PCT": 0.069, "AS_PCT": 0.039, "WH_PCT": 0.04, "MNHL_PCT": 0.011, "FLNE_PCT": 0.882, "ECD_PCT": null }, "geometry": { "type": "Point", "coordinates": [ -70.936625745992885, 42.471588142755877 ] } },
{ "type": "Feature", "properties": { "SCHID": "01630095", "NAME": "Edward A Sisson School", "ADDRESS": "58 Conomo Avenue", "TOWN_MAIL": "Lynn", "TOWN": "LYNN", "ZIPCODE": "01904", "PHONE": "781-477-7455", "GRADES": "PK,K,01,02,03,04,05", "TYPE": "ELE", "TYPE_DESC": "Public Elementary", "DIST_NAME": "Lynn", "DIST_CODE": "01630000", "MA_ADDR_ID": 3787201, "TYPE_DESC2": null, "lon": -70.957833403097837, "lat": 42.486323212016032, "DIST_CODE_8": "01630000", "ORG_CODE": "01630095", "ORG_NAME": "Edward A Sisson", "SY": 2026.0, "TOTAL_CNT": 414.0, "EL_PCT": 0.454, "LI_PCT": 0.621, "SWD_PCT": 0.229, "HN_PCT": 0.809, "HL_PCT": 0.594, "BAA_PCT": 0.08, "AS_PCT": 0.077, "WH_PCT": 0.22, "MNHL_PCT": 0.027, "FLNE_PCT": 0.65, "ECD_PCT": null }, "geometry": { "type": "Point", "coordinates": [ -70.957833403097837, 42.486323212016032 ] } },
{ "type": "Feature", "properties": { "SCHID": "01630020", "NAME": "Brickett Elementary School", "ADDRESS": "123 Lewis Street", "TOWN_MAIL": "Lynn", "TOWN": "LYNN", "ZIPCODE": "01902", "PHONE": "781-477-7333", "GRADES": "K,01,02,03,04,05", "TYPE": "ELE", "TYPE_DESC": "Public Elementary", "DIST_NAME": "Lynn", "DIST_CODE": "01630000", "MA_ADDR_ID": 3785589, "TYPE_DESC2": null, "lon": -70.930969033027978, "lat": 42.466101379940163, "DIST_CODE_8": "01630000", "ORG_CODE": "01630020", "ORG_NAME": "Brickett Elementary", "SY": 2026.0, "TOTAL_CNT": 330.0, "EL_PCT": 0.618, "LI_PCT": 0.812, "SWD_PCT": 0.194, "HN_PCT": 0.939, "HL_PCT": 0.755, "BAA_PCT": 0.073, "AS_PCT": 0.076, "WH_PCT": 0.064, "MNHL_PCT": 0.033, "FLNE_PCT": 0.8, "ECD_PCT": null }, "geometry": { "type": "Point", "coordinates": [ -70.930969033027978, 42.466101379940163 ] } },
{ "type": "Feature", "properties": { "SCHID": "01630035", "NAME": "Cobbet Elementary School", "ADDRESS": "40 Franklin Street", "TOWN_MAIL": "Lynn", "TOWN": "LYNN", "ZIPCODE": "01902", "PHONE": "781-477-7341", "GRADES": "PK,K,01,02,03,04,05", "TYPE": "ELE", "TYPE_DESC": "Public Elementary", "DIST_NAME": "Lynn", "DIST_CODE": "01630000", "MA_ADDR_ID": 3780261, "TYPE_DESC2": null, "lon": -70.955033408643189, "lat": 42.464704647422316, "DIST_CODE_8": "01630000", "ORG_CODE": "01630035", "ORG_NAME": "Cobbet Elementary", "SY": 2026.0, "TOTAL_CNT": 631.0, "EL_PCT": 0.735, "LI_PCT": 0.835, "SWD_PCT": 0.217, "HN_PCT": 0.96, "HL_PCT": 0.846, "BAA_PCT": 0.081, "AS_PCT": 0.03, "WH_PCT": 0.025, "MNHL_PCT": 0.014, "FLNE_PCT": 0.911, "ECD_PCT": null }, "geometry": { "type": "Point", "coordinates": [ -70.955033408643189, 42.464704647422316 ] } },
{ "type": "Feature", "properties": { "SCHID": "01630016", "NAME": "A. Drewicz Elementary School", "ADDRESS": "34 Hood Street", "TOWN_MAIL": "Lynn", "TOWN": "LYNN", "ZIPCODE": "01905", "PHONE": "781-477-7350", "GRADES": "K,01,02,03,04,05", "TYPE": "ELE", "TYPE_DESC": "Public Elementary", "DIST_NAME": "Lynn", "DIST_CODE": "01630000", "MA_ADDR_ID": 3782268, "TYPE_DESC2": null, "lon": -70.969321424608836, "lat": 42.460617269770033, "DIST_CODE_8": "01630000", "ORG_CODE": "01630016", "ORG_NAME": "A Drewicz Elementary", "SY": 2026.0, "TOTAL_CNT": 502.0, "EL_PCT": 0.677, "LI_PCT": 0.805, "SWD_PCT": 0.155, "HN_PCT": 0.946, "HL_PCT": 0.809, "BAA_PCT": 0.042, "AS_PCT": 0.068, "WH_PCT": 0.058, "MNHL_PCT": 0.016, "FLNE_PCT": 0.884, "ECD_PCT": null }, "geometry": { "type": "Point", "coordinates": [ -70.969321424608836, 42.460617269770033 ] } },
{ "type": "Feature", "properties": { "SCHID": "01630420", "NAME": "Pickering Middle School", "ADDRESS": "70 Conomo Avenue", "TOWN_MAIL": "Lynn", "TOWN": "LYNN", "ZIPCODE": "01904", "PHONE": "781-477-7440", "GRADES": "06,07,08", "TYPE": "MID", "TYPE_DESC": "Public Middle", "DIST_NAME": "Lynn", "DIST_CODE": "01630000", "MA_ADDR_ID": 3778395, "TYPE_DESC2": null, "lon": -70.958603467063057, "lat": 42.486593612540311, "DIST_CODE_8": "01630000", "ORG_CODE": "01630420", "ORG_NAME": "Pickering Middle", "SY": 2026.0, "TOTAL_CNT": 539.0, "EL_PCT": 0.271, "LI_PCT": 0.642, "SWD_PCT": 0.301, "HN_PCT": 0.818, "HL_PCT": 0.642, "BAA_PCT": 0.065, "AS_PCT": 0.096, "WH_PCT": 0.156, "MNHL_PCT": 0.039, "FLNE_PCT": 0.596, "ECD_PCT": null }, "geometry": { "type": "Point", "coordinates": [ -70.958603467063057, 42.486593612540311 ] } },
{ "type": "Feature", "properties": { "SCHID": "01630085", "NAME": "Sewell-Anderson School", "ADDRESS": "25 Ontario Street", "TOWN_MAIL": "Lynn", "TOWN": "LYNN", "ZIPCODE": "01905", "PHONE": "781-477-7444", "GRADES": "K,01,02,03,04,05", "TYPE": "ELE", "TYPE_DESC": "Public Elementary", "DIST_NAME": "Lynn", "DIST_CODE": "01630000", "MA_ADDR_ID": 3784071, "TYPE_DESC2": null, "lon": -70.967897360159782, "lat": 42.473258258755607, "DIST_CODE_8": "01630000", "ORG_CODE": "01630085", "ORG_NAME": "Sewell-Anderson", "SY": 2026.0, "TOTAL_CNT": 256.0, "EL_PCT": 0.57, "LI_PCT": 0.664, "SWD_PCT": 0.219, "HN_PCT": 0.844, "HL_PCT": 0.672, "BAA_PCT": 0.086, "AS_PCT": 0.047, "WH_PCT": 0.156, "MNHL_PCT": 0.031, "FLNE_PCT": 0.734, "ECD_PCT": null }, "geometry": { "type": "Point", "coordinates": [ -70.967897360159782, 42.473258258755607 ] } },
{ "type": "Feature", "properties": { "SCHID": "01630075", "NAME": "Lynn Woods School", "ADDRESS": "31 Trevett Avenue", "TOWN_MAIL": "Lynn", "TOWN": "LYNN", "ZIPCODE": "01904", "PHONE": "781-477-7433", "GRADES": "K,01,02,03,04,05", "TYPE": "ELE", "TYPE_DESC": "Public Elementary", "DIST_NAME": "Lynn", "DIST_CODE": "01630000", "MA_ADDR_ID": 3793478, "TYPE_DESC2": null, "lon": -70.971379071685405, "lat": 42.495973224526168, "DIST_CODE_8": "01630000", "ORG_CODE": "01630075", "ORG_NAME": "Lynn Woods", "SY": 2026.0, "TOTAL_CNT": 172.0, "EL_PCT": 0.297, "LI_PCT": 0.395, "SWD_PCT": 0.326, "HN_PCT": 0.599, "HL_PCT": 0.471, "BAA_PCT": 0.029, "AS_PCT": 0.076, "WH_PCT": 0.366, "MNHL_PCT": 0.052, "FLNE_PCT": 0.5, "ECD_PCT": null }, "geometry": { "type": "Point", "coordinates": [ -70.971379071685405, 42.495973224526168 ] } },
{ "type": "Feature", "properties": { "SCHID": "01630510", "NAME": "Lynn English High School", "ADDRESS": "50 Goodridge Street", "TOWN_MAIL": "Lynn", "TOWN": "LYNN", "ZIPCODE": "01902", "PHONE": "781-477-7366", "GRADES": "09,10,11,12", "TYPE": "SEC", "TYPE_DESC": "Public Secondary", "DIST_NAME": "Lynn", "DIST_CODE": "01630000", "MA_ADDR_ID": 3794571, "TYPE_DESC2": null, "lon": -70.943959076913345, "lat": 42.476750067901023, "DIST_CODE_8": "01630000", "ORG_CODE": "01630510", "ORG_NAME": "Lynn English High", "SY": 2026.0, "TOTAL_CNT": 1727.0, "EL_PCT": 0.42, "LI_PCT": 0.752, "SWD_PCT": 0.171, "HN_PCT": 0.844, "HL_PCT": 0.73, "BAA_PCT": 0.109, "AS_PCT": 0.074, "WH_PCT": 0.054, "MNHL_PCT": 0.027, "FLNE_PCT": 0.715, "ECD_PCT": null }, "geometry": { "type": "Point", "coordinates": [ -70.943959076913345, 42.476750067901023 ] } },
{ "type": "Feature", "properties": { "SCHID": "01630505", "NAME": "Classical High School", "ADDRESS": "235 O Callaghan Way", "TOWN_MAIL": "Lynn", "TOWN": "LYNN", "ZIPCODE": "01905", "PHONE": "781-477-7404", "GRADES": "09,10,11,12", "TYPE": "SEC", "TYPE_DESC": "Public Secondary", "DIST_NAME": "Lynn", "DIST_CODE": "01630000", "MA_ADDR_ID": 3775540, "TYPE_DESC2": null, "lon": -70.985274828201653, "lat": 42.465241435526146, "DIST_CODE_8": "01630000", "ORG_CODE": "01630505", "ORG_NAME": "Classical High", "SY": 2026.0, "TOTAL_CNT": 1513.0, "EL_PCT": 0.334, "LI_PCT": 0.718, "SWD_PCT": 0.192, "HN_PCT": 0.827, "HL_PCT": 0.693, "BAA_PCT": 0.084, "AS_PCT": 0.081, "WH_PCT": 0.118, "MNHL_PCT": 0.021, "FLNE_PCT": 0.681, "ECD_PCT": null }, "geometry": { "type": "Point", "coordinates": [ -70.985274828201653, 42.465241435526146 ] } },
{ "type": "Feature", "properties": { "SCHID": "01630040", "NAME": "Wm. P. Connery Elementary School", "ADDRESS": "50 Elm Street", "TOWN_MAIL": "Lynn", "TOWN": "LYNN", "ZIPCODE": "01905", "PHONE": "781-477-7344", "GRADES": "K,01,02,03,04,05", "TYPE": "ELE", "TYPE_DESC": "Public Elementary", "DIST_NAME": "Lynn", "DIST_CODE": "01630000", "MA_ADDR_ID": 3794120, "TYPE_DESC2": null, "lon": -70.962660284337645, "lat": 42.461080988554556, "DIST_CODE_8": "01630000", "ORG_CODE": "01630040", "ORG_NAME": "Wm P Connery", "SY": 2026.0, "TOTAL_CNT": 558.0, "EL_PCT": 0.762, "LI_PCT": 0.823, "SWD_PCT": 0.179, "HN_PCT": 0.955, "HL_PCT": 0.817, "BAA_PCT": 0.072, "AS_PCT": 0.057, "WH_PCT": 0.036, "MNHL_PCT": 0.014, "FLNE_PCT": 0.898, "ECD_PCT": null }, "geometry": { "type": "Point", "coordinates": [ -70.962660284337645, 42.461080988554556 ] } },
{ "type": "Feature", "properties": { "SCHID": "01630070", "NAME": "Lincoln-Thomson School", "ADDRESS": "115 Gardiner Street", "TOWN_MAIL": "Lynn", "TOWN": "LYNN", "ZIPCODE": "01905", "PHONE": "781-477-7460", "GRADES": "K,01,02,03,04,05", "TYPE": "ELE", "TYPE_DESC": "Public Elementary", "DIST_NAME": "Lynn", "DIST_CODE": "01630000", "MA_ADDR_ID": 3782248, "TYPE_DESC2": null, "lon": -70.977125272936078, "lat": 42.467875586836769, "DIST_CODE_8": "01630000", "ORG_CODE": "01630070", "ORG_NAME": "Lincoln-Thomson", "SY": 2026.0, "TOTAL_CNT": 189.0, "EL_PCT": 0.55, "LI_PCT": 0.725, "SWD_PCT": 0.159, "HN_PCT": 0.884, "HL_PCT": 0.651, "BAA_PCT": 0.037, "AS_PCT": 0.095, "WH_PCT": 0.175, "MNHL_PCT": 0.032, "FLNE_PCT": 0.735, "ECD_PCT": null }, "geometry": { "type": "Point", "coordinates": [ -70.977125272936078, 42.467875586836769 ] } },
{ "type": "Feature", "properties": { "SCHID": "01630605", "NAME": "Lynn Vocational Technical Institute", "ADDRESS": "80 Neptune Blvd", "TOWN_MAIL": "Lynn", "TOWN": "LYNN", "ZIPCODE": "01902", "PHONE": "781-477-7431", "GRADES": "PK,K,01,02,03,04,05,06,07,08,09,10,11,12", "TYPE": "SEC", "TYPE_DESC": "Public Secondary", "DIST_NAME": "Lynn", "DIST_CODE": "01630000", "MA_ADDR_ID": 3785906, "TYPE_DESC2": null, "lon": -70.954877814730111, "lat": 42.459619801041548, "DIST_CODE_8": "01630000", "ORG_CODE": "01630605", "ORG_NAME": "Lynn Vocational Technical Institute", "SY": 2026.0, "TOTAL_CNT": 1566.0, "EL_PCT": 0.181, "LI_PCT": 0.665, "SWD_PCT": 0.165, "HN_PCT": 0.761, "HL_PCT": 0.784, "BAA_PCT": 0.049, "AS_PCT": 0.038, "WH_PCT": 0.101, "MNHL_PCT": 0.023, "FLNE_PCT": 0.693, "ECD_PCT": null }, "geometry": { "type": "Point", "coordinates": [ -70.954877814730111, 42.459619801041548 ] } },
{ "type": "Feature", "properties": { "SCHID": "01630090", "NAME": "Capt. William G. Shoemaker Elementary School", "ADDRESS": "26 Regina Road", "TOWN_MAIL": "Lynn", "TOWN": "LYNN", "ZIPCODE": "01904", "PHONE": "781-477-7450", "GRADES": "PK,K,01,02,03,04,05", "TYPE": "ELE", "TYPE_DESC": "Public Elementary", "DIST_NAME": "Lynn", "DIST_CODE": "01630000", "MA_ADDR_ID": 3790509, "TYPE_DESC2": null, "lon": -70.983498811529984, "lat": 42.504846784204851, "DIST_CODE_8": "01630000", "ORG_CODE": "01630090", "ORG_NAME": "Capt William G Shoemaker", "SY": 2026.0, "TOTAL_CNT": 363.0, "EL_PCT": 0.397, "LI_PCT": 0.518, "SWD_PCT": 0.551, "HN_PCT": 0.769, "HL_PCT": 0.496, "BAA_PCT": 0.074, "AS_PCT": 0.072, "WH_PCT": 0.309, "MNHL_PCT": 0.047, "FLNE_PCT": 0.548, "ECD_PCT": null }, "geometry": { "type": "Point", "coordinates": [ -70.983498811529984, 42.504846784204851 ] } },
{ "type": "Feature", "properties": { "SCHID": "01630045", "NAME": "E. J. Harrington Elementary School", "ADDRESS": "21 Dexter Street", "TOWN_MAIL": "Lynn", "TOWN": "LYNN", "ZIPCODE": "01902", "PHONE": "781-477-7380", "GRADES": "PK,K,01,02,03,04,05", "TYPE": "ELE", "TYPE_DESC": "Public Elementary", "DIST_NAME": "Lynn", "DIST_CODE": "01630000", "MA_ADDR_ID": 3786830, "TYPE_DESC2": null, "lon": -70.939026424412233, "lat": 42.464669407741553, "DIST_CODE_8": "01630000", "ORG_CODE": "01630045", "ORG_NAME": "E J Harrington", "SY": 2026.0, "TOTAL_CNT": 685.0, "EL_PCT": 0.726, "LI_PCT": 0.844, "SWD_PCT": 0.213, "HN_PCT": 0.949, "HL_PCT": 0.774, "BAA_PCT": 0.079, "AS_PCT": 0.05, "WH_PCT": 0.058, "MNHL_PCT": 0.035, "FLNE_PCT": 0.895, "ECD_PCT": null }, "geometry": { "type": "Point", "coordinates": [ -70.939026424412233, 42.464669407741553 ] } },
{ "type": "Feature", "properties": { "SCHID": "01630405", "NAME": "Breed Middle School", "ADDRESS": "90 OCallaghan Way", "TOWN_MAIL": "Lynn", "TOWN": "LYNN", "ZIPCODE": "01905", "PHONE": "781-477-7330", "GRADES": "06,07,08", "TYPE": "MID", "TYPE_DESC": "Public Middle", "DIST_NAME": "Lynn", "DIST_CODE": "01630000", "MA_ADDR_ID": 3784424, "TYPE_DESC2": null, "lon": -70.984813937491765, "lat": 42.470625587246545, "DIST_CODE_8": "01630000", "ORG_CODE": "01630405", "ORG_NAME": "Breed Middle School", "SY": 2026.0, "TOTAL_CNT": 1160.0, "EL_PCT": 0.328, "LI_PCT": 0.73, "SWD_PCT": 0.277, "HN_PCT": 0.888, "HL_PCT": 0.735, "BAA_PCT": 0.084, "AS_PCT": 0.078, "WH_PCT": 0.075, "MNHL_PCT": 0.025, "FLNE_PCT": 0.715, "ECD_PCT": null }, "geometry": { "type": "Point", "coordinates": [ -70.984813937491765, 42.470625587246545 ] } },
{ "type": "Feature", "properties": { "SCHID": "01630030", "NAME": "Julia F Callahan School", "ADDRESS": "200 O'Callaghan Way", "TOWN_MAIL": "Lynn", "TOWN": "LYNN", "ZIPCODE": "01905", "PHONE": "781-477-7340", "GRADES": "PK,K,01,02,03,04,05", "TYPE": "ELE", "TYPE_DESC": "Public Elementary", "DIST_NAME": "Lynn", "DIST_CODE": "01630000", "MA_ADDR_ID": 3795795, "TYPE_DESC2": null, "lon": -70.98472779672872, "lat": 42.467468779502504, "DIST_CODE_8": "01630000", "ORG_CODE": "01630030", "ORG_NAME": "Julia F Callahan", "SY": 2026.0, "TOTAL_CNT": 384.0, "EL_PCT": 0.474, "LI_PCT": 0.703, "SWD_PCT": 0.305, "HN_PCT": 0.88, "HL_PCT": 0.638, "BAA_PCT": 0.107, "AS_PCT": 0.076, "WH_PCT": 0.148, "MNHL_PCT": 0.031, "FLNE_PCT": 0.732, "ECD_PCT": null }, "geometry": { "type": "Point", "coordinates": [ -70.98472779672872, 42.467468779502504 ] } },
{ "type": "Feature", "properties": { "SCHID": "01630011", "NAME": "Aborn School", "ADDRESS": "409 Eastern Avenue", "TOWN_MAIL": "Lynn", "TOWN": "LYNN", "ZIPCODE": "01902", "PHONE": "781-477-7320", "GRADES": "K,01,02,03,04,05", "TYPE": "ELE", "TYPE_DESC": "Public Elementary", "DIST_NAME": "Lynn", "DIST_CODE": "01630000", "MA_ADDR_ID": 3791684, "TYPE_DESC2": null, "lon": -70.933112488135748, "lat": 42.479193578104194, "DIST_CODE_8": "01630000", "ORG_CODE": "01630011", "ORG_NAME": "Aborn", "SY": 2026.0, "TOTAL_CNT": 232.0, "EL_PCT": 0.397, "LI_PCT": 0.582, "SWD_PCT": 0.19, "HN_PCT": 0.772, "HL_PCT": 0.556, "BAA_PCT": 0.065, "AS_PCT": 0.099, "WH_PCT": 0.246, "MNHL_PCT": 0.03, "FLNE_PCT": 0.642, "ECD_PCT": null }, "geometry": { "type": "Point", "coordinates": [ -70.933112488135748, 42.479193578104194 ] } },
{ "type": "Feature", "properties": { "SCHID": "01630055", "NAME": "Hood School", "ADDRESS": "24 Oakwood Avenue", "TOWN_MAIL": "Lynn", "TOWN": "LYNN", "ZIPCODE": "01902", "PHONE": "781-477-7390", "GRADES": "PK,K,01,02,03,04,05", "TYPE": "ELE", "TYPE_DESC": "Public Elementary", "DIST_NAME": "Lynn", "DIST_CODE": "01630000", "MA_ADDR_ID": 3784253, "TYPE_DESC2": null, "lon": -70.938645865152452, "lat": 42.47837039880848, "DIST_CODE_8": "01630000", "ORG_CODE": "01630055", "ORG_NAME": "Hood", "SY": 2026.0, "TOTAL_CNT": 553.0, "EL_PCT": 0.626, "LI_PCT": 0.767, "SWD_PCT": 0.26, "HN_PCT": 0.948, "HL_PCT": 0.765, "BAA_PCT": 0.074, "AS_PCT": 0.071, "WH_PCT": 0.06, "MNHL_PCT": 0.024, "FLNE_PCT": 0.843, "ECD_PCT": null }, "geometry": { "type": "Point", "coordinates": [ -70.938645865152452, 42.47837039880848 ] } },
{ "type": "Feature", "properties": { "SCHID": "01630050", "NAME": "Robert L Ford School", "ADDRESS": "49 Hollingsworth Street", "TOWN_MAIL": "Lynn", "TOWN": "LYNN", "ZIPCODE": "01902", "PHONE": "781-477-7375", "GRADES": "K,01,02,03,04,05", "TYPE": "ELE", "TYPE_DESC": "Public Elementary", "DIST_NAME": "Lynn", "DIST_CODE": "01630000", "MA_ADDR_ID": 3781736, "TYPE_DESC2": null, "lon": -70.947030776841913, "lat": 42.471341718910537, "DIST_CODE_8": "01630000", "ORG_CODE": "01630050", "ORG_NAME": "Robert L Ford", "SY": 2026.0, "TOTAL_CNT": 449.0, "EL_PCT": 0.664, "LI_PCT": 0.817, "SWD_PCT": 0.14, "HN_PCT": 0.944, "HL_PCT": 0.853, "BAA_PCT": 0.073, "AS_PCT": 0.027, "WH_PCT": 0.027, "MNHL_PCT": 0.02, "FLNE_PCT": 0.882, "ECD_PCT": null }, "geometry": { "type": "Point", "coordinates": [ -70.947030776841913, 42.471341718910537 ] } },
{ "type": "Feature", "properties": { "SCHID": "01630855", "NAME": "North Shore Christian School", "ADDRESS": "26 Urban Street", "TOWN_MAIL": "Lynn", "TOWN": "LYNN", "ZIPCODE": "01904", "PHONE": "781-599-2040", "GRADES": "PK,K,01,02,03,04,05,06,07,08", "TYPE": "PRI", "TYPE_DESC": "Private", "DIST_NAME": null, "DIST_CODE": null, "MA_ADDR_ID": 3790516, "TYPE_DESC2": null, "lon": -70.953595676479225, "lat": 42.488263032163744, "DIST_CODE_8": null, "ORG_CODE": null, "ORG_NAME": null, "SY": null, "TOTAL_CNT": null, "EL_PCT": null, "LI_PCT": null, "SWD_PCT": null, "HN_PCT": null, "HL_PCT": null, "BAA_PCT": null, "AS_PCT": null, "WH_PCT": null, "MNHL_PCT": null, "FLNE_PCT": null, "ECD_PCT": null }, "geometry": { "type": "Point", "coordinates": [ -70.953595676479225, 42.488263032163744 ] } },
{ "type": "Feature", "properties": { "SCHID": "01630865", "NAME": "Sacred Heart Elementary School", "ADDRESS": "571R Boston Street", "TOWN_MAIL": "West Lynn", "TOWN": "LYNN", "ZIPCODE": "01905", "PHONE": "781-592-7581", "GRADES": "PK,K,01,02,03,04,05,06,07,08", "TYPE": "PRI", "TYPE_DESC": "Private", "DIST_NAME": null, "DIST_CODE": null, "MA_ADDR_ID": 3787162, "TYPE_DESC2": null, "lon": -70.97372892444362, "lat": 42.46450387944143, "DIST_CODE_8": null, "ORG_CODE": null, "ORG_NAME": null, "SY": null, "TOTAL_CNT": null, "EL_PCT": null, "LI_PCT": null, "SWD_PCT": null, "HN_PCT": null, "HL_PCT": null, "BAA_PCT": null, "AS_PCT": null, "WH_PCT": null, "MNHL_PCT": null, "FLNE_PCT": null, "ECD_PCT": null }, "geometry": { "type": "Point", "coordinates": [ -70.97372892444362, 42.46450387944143 ] } },
{ "type": "Feature", "properties": { "SCHID": "01630900", "NAME": "St. Pius V Elementary School", "ADDRESS": "28 Bowler Street", "TOWN_MAIL": "Lynn", "TOWN": "LYNN", "ZIPCODE": "01904", "PHONE": "781-593-8292", "GRADES": "PK,K,01,02,03,04,05,06,07,08", "TYPE": "PRI", "TYPE_DESC": "Private", "DIST_NAME": null, "DIST_CODE": null, "MA_ADDR_ID": 3796139, "TYPE_DESC2": null, "lon": -70.949205354096932, "lat": 42.479719091705412, "DIST_CODE_8": null, "ORG_CODE": null, "ORG_NAME": null, "SY": null, "TOTAL_CNT": null, "EL_PCT": null, "LI_PCT": null, "SWD_PCT": null, "HN_PCT": null, "HL_PCT": null, "BAA_PCT": null, "AS_PCT": null, "WH_PCT": null, "MNHL_PCT": null, "FLNE_PCT": null, "ECD_PCT": null }, "geometry": { "type": "Point", "coordinates": [ -70.949205354096932, 42.479719091705412 ] } },
{ "type": "Feature", "properties": { "SCHID": "01630100", "NAME": "Tracy School", "ADDRESS": "35 Walnut Street", "TOWN_MAIL": "Lynn", "TOWN": "LYNN", "ZIPCODE": "01905", "PHONE": "781-477-7466", "GRADES": "K,01,02,03,04,05", "TYPE": "ELE", "TYPE_DESC": "Public Elementary", "DIST_NAME": "Lynn", "DIST_CODE": "01630000", "MA_ADDR_ID": 3779650, "TYPE_DESC2": null, "lon": -70.966617687844462, "lat": 42.469226387632965, "DIST_CODE_8": "01630000", "ORG_CODE": "01630100", "ORG_NAME": "Tracy", "SY": 2026.0, "TOTAL_CNT": 410.0, "EL_PCT": 0.695, "LI_PCT": 0.837, "SWD_PCT": 0.105, "HN_PCT": 0.944, "HL_PCT": 0.866, "BAA_PCT": 0.071, "AS_PCT": 0.032, "WH_PCT": 0.012, "MNHL_PCT": 0.012, "FLNE_PCT": 0.944, "ECD_PCT": null }, "geometry": { "type": "Point", "coordinates": [ -70.966617687844462, 42.469226387632965 ] } },
{ "type": "Feature", "properties": { "SCHID": "01630305", "NAME": "Thurgood Marshall Middle School", "ADDRESS": "100 Brookline Street", "TOWN_MAIL": "Lynn", "TOWN": "LYNN", "ZIPCODE": "01902", "PHONE": "781-477-7360", "GRADES": "06,07,08", "TYPE": "MID", "TYPE_DESC": "Public Middle", "DIST_NAME": "Lynn", "DIST_CODE": "01630000", "MA_ADDR_ID": 4217575, "TYPE_DESC2": null, "lon": -70.929586638586798, "lat": 42.470916538513066, "DIST_CODE_8": "01630000", "ORG_CODE": "01630305", "ORG_NAME": "Thurgood Marshall Mid", "SY": 2026.0, "TOTAL_CNT": 1190.0, "EL_PCT": 0.327, "LI_PCT": 0.745, "SWD_PCT": 0.233, "HN_PCT": 0.905, "HL_PCT": 0.734, "BAA_PCT": 0.1, "AS_PCT": 0.064, "WH_PCT": 0.068, "MNHL_PCT": 0.027, "FLNE_PCT": 0.743, "ECD_PCT": null }, "geometry": { "type": "Point", "coordinates": [ -70.929586638586798, 42.470916538513066 ] } },
{ "type": "Feature", "properties": { "SCHID": "01630525", "NAME": "Harold Durgin Success Academy", "ADDRESS": "33 North Common Street", "TOWN_MAIL": "Lynn", "TOWN": "LYNN", "ZIPCODE": "01902", "PHONE": "781-268-3007", "GRADES": "09,10,11,12", "TYPE": "SEC", "TYPE_DESC": "Public Secondary", "DIST_NAME": "Lynn", "DIST_CODE": "01630000", "MA_ADDR_ID": 3788025, "TYPE_DESC2": null, "lon": -70.955033408643189, "lat": 42.464704647422316, "DIST_CODE_8": "01630000", "ORG_CODE": "01630525", "ORG_NAME": "Harold Durgin Success Academy", "SY": 2026.0, "TOTAL_CNT": 98.0, "EL_PCT": 0.388, "LI_PCT": 0.878, "SWD_PCT": 0.337, "HN_PCT": 0.949, "HL_PCT": 0.765, "BAA_PCT": 0.071, "AS_PCT": 0.031, "WH_PCT": 0.082, "MNHL_PCT": 0.051, "FLNE_PCT": 0.663, "ECD_PCT": null }, "geometry": { "type": "Point", "coordinates": [ -70.955033408643189, 42.464704647422316 ] } },
{ "type": "Feature", "properties": { "SCHID": "01630810", "NAME": "The Hathaway School", "ADDRESS": "25 Bessom Street", "TOWN_MAIL": "Lynn", "TOWN": "LYNN", "ZIPCODE": "01902", "PHONE": "781-595-5859", "GRADES": "PK,K,01,02,03,04,05,06,07,08", "TYPE": "PRI", "TYPE_DESC": "Private", "DIST_NAME": null, "DIST_CODE": null, "MA_ADDR_ID": 3778504, "TYPE_DESC2": null, "lon": -70.928070662907061, "lat": 42.47636155860539, "DIST_CODE_8": null, "ORG_CODE": null, "ORG_NAME": null, "SY": null, "TOTAL_CNT": null, "EL_PCT": null, "LI_PCT": null, "SWD_PCT": null, "HN_PCT": null, "HL_PCT": null, "BAA_PCT": null, "AS_PCT": null, "WH_PCT": null, "MNHL_PCT": null, "FLNE_PCT": null, "ECD_PCT": null }, "geometry": { "type": "Point", "coordinates": [ -70.928070662907061, 42.47636155860539 ] } },
{ "type": "Feature", "properties": { "SCHID": "01630005", "NAME": "Washington Elementary School", "ADDRESS": "58 Blossom Street", "TOWN_MAIL": "Lynn", "TOWN": "LYNN", "ZIPCODE": "01902", "PHONE": "339-883-1414", "GRADES": "K,01,02,03,04,05", "TYPE": "ELE", "TYPE_DESC": "Public Elementary", "DIST_NAME": "Lynn", "DIST_CODE": "01630000", "MA_ADDR_ID": 3778364, "TYPE_DESC2": null, "lon": -70.954111708693105, "lat": 42.461661146027602, "DIST_CODE_8": "01630000", "ORG_CODE": "01630005", "ORG_NAME": "Washington Elementary School", "SY": 2026.0, "TOTAL_CNT": 453.0, "EL_PCT": 0.647, "LI_PCT": 0.81, "SWD_PCT": 0.179, "HN_PCT": 0.962, "HL_PCT": 0.675, "BAA_PCT": 0.227, "AS_PCT": 0.026, "WH_PCT": 0.049, "MNHL_PCT": 0.022, "FLNE_PCT": 0.859, "ECD_PCT": null }, "geometry": { "type": "Point", "coordinates": [ -70.954111708693105, 42.461661146027602 ] } },
{ "type": "Feature", "properties": { "SCHID": "01630080", "NAME": "William R Fallon School", "ADDRESS": "100 Robinson Street", "TOWN_MAIL": "Lynn", "TOWN": "LYNN", "ZIPCODE": "01905", "PHONE": "781-477-7401", "GRADES": "PK,K,01,02,03,04,05", "TYPE": "ELE", "TYPE_DESC": "Public Elementary", "DIST_NAME": "Lynn", "DIST_CODE": "01630000", "MA_ADDR_ID": 3779160, "TYPE_DESC2": null, "lon": -70.970591122571207, "lat": 42.468767494987674, "DIST_CODE_8": "01630000", "ORG_CODE": "01630080", "ORG_NAME": "William R Fallon", "SY": 2026.0, "TOTAL_CNT": 26.0, "EL_PCT": 0.269, "LI_PCT": 0.808, "SWD_PCT": 0.885, "HN_PCT": 1.0, "HL_PCT": 0.577, "BAA_PCT": 0.231, "AS_PCT": 0.0, "WH_PCT": 0.115, "MNHL_PCT": 0.077, "FLNE_PCT": 0.462, "ECD_PCT": null }, "geometry": { "type": "Point", "coordinates": [ -70.970591122571207, 42.468767494987674 ] } },
{ "type": "Feature", "properties": { "SCHID": "04290010", "NAME": "KIPP Academy Lynn Charter School", "ADDRESS": "90 High Rock Street", "TOWN_MAIL": "Lynn", "TOWN": "LYNN", "ZIPCODE": "01902", "PHONE": "781-598-1609", "GRADES": "K,01,02,03,04,05,06,07,08,09,10,11,12", "TYPE": "CHA", "TYPE_DESC": "Charter", "DIST_NAME": "KIPP Academy Lynn Charter", "DIST_CODE": "04290000", "MA_ADDR_ID": 3784423, "TYPE_DESC2": null, "lon": -70.94948630266174, "lat": 42.467854569496275, "DIST_CODE_8": "04290000", "ORG_CODE": null, "ORG_NAME": null, "SY": null, "TOTAL_CNT": null, "EL_PCT": null, "LI_PCT": null, "SWD_PCT": null, "HN_PCT": null, "HL_PCT": null, "BAA_PCT": null, "AS_PCT": null, "WH_PCT": null, "MNHL_PCT": null, "FLNE_PCT": null, "ECD_PCT": null }, "geometry": { "type": "Point", "coordinates": [ -70.94948630266174, 42.467854569496275 ] } },
{ "type": "Feature", "properties": { "SCHID": "01630885", "NAME": "St. Mary's High School", "ADDRESS": "35 Tremont Street", "TOWN_MAIL": "Lynn", "TOWN": "LYNN", "ZIPCODE": "01902", "PHONE": "781-596-2007", "GRADES": "07,08,09,10,11,12", "TYPE": "PRI", "TYPE_DESC": "Private", "DIST_NAME": null, "DIST_CODE": null, "MA_ADDR_ID": 3782503, "TYPE_DESC2": null, "lon": -70.95119182267014, "lat": 42.462998979165327, "DIST_CODE_8": null, "ORG_CODE": null, "ORG_NAME": null, "SY": null, "TOTAL_CNT": null, "EL_PCT": null, "LI_PCT": null, "SWD_PCT": null, "HN_PCT": null, "HL_PCT": null, "BAA_PCT": null, "AS_PCT": null, "WH_PCT": null, "MNHL_PCT": null, "FLNE_PCT": null, "ECD_PCT": null }, "geometry": { "type": "Point", "coordinates": [ -70.95119182267014, 42.462998979165327 ] } },
{ "type": "Feature", "properties": { "SCHID": "01630004", "NAME": "Virginia Barton Early Childhood Center", "ADDRESS": "100 Bennet Street", "TOWN_MAIL": "Lynn", "TOWN": "LYNN", "ZIPCODE": "01905", "PHONE": "781-477-7220", "GRADES": "PK,K", "TYPE": "ELE", "TYPE_DESC": "Public Elementary", "DIST_NAME": "Lynn", "DIST_CODE": "01630000", "MA_ADDR_ID": 3796680, "TYPE_DESC2": null, "lon": -70.963300215599602, "lat": 42.455732292809145, "DIST_CODE_8": "01630000", "ORG_CODE": null, "ORG_NAME": null, "SY": null, "TOTAL_CNT": null, "EL_PCT": null, "LI_PCT": null, "SWD_PCT": null, "HN_PCT": null, "HL_PCT": null, "BAA_PCT": null, "AS_PCT": null, "WH_PCT": null, "MNHL_PCT": null, "FLNE_PCT": null, "ECD_PCT": null }, "geometry": { "type": "Point", "coordinates": [ -70.963300215599602, 42.455732292809145 ] } },
{ "type": "Feature", "properties": { "SCHID": "01630575", "NAME": "Fredrick Douglass Collegiate Academy", "ADDRESS": "300 Broad Street", "TOWN_MAIL": "Lynn", "TOWN": "LYNN", "ZIPCODE": "01901", "PHONE": "781-477-2292", "GRADES": "06,07,08,09,10,11,12", "TYPE": "SEC", "TYPE_DESC": "Public Secondary", "DIST_NAME": "Lynn", "DIST_CODE": "01630000", "MA_ADDR_ID": 3779217, "TYPE_DESC2": null, "lon": -70.943943941155581, "lat": 42.460911304028556, "DIST_CODE_8": "01630000", "ORG_CODE": "01630575", "ORG_NAME": "Fredrick Douglass Collegiate Academy", "SY": 2026.0, "TOTAL_CNT": 364.0, "EL_PCT": 0.096, "LI_PCT": 0.668, "SWD_PCT": 0.255, "HN_PCT": 0.739, "HL_PCT": 0.706, "BAA_PCT": 0.088, "AS_PCT": 0.052, "WH_PCT": 0.113, "MNHL_PCT": 0.038, "FLNE_PCT": 0.544, "ECD_PCT": null }, "geometry": { "type": "Point", "coordinates": [ -70.943943941155581, 42.460911304028556 ] } },
{ "type": "Feature", "properties": { "SCHID": "01630555", "NAME": "City Arts & Sciences Academy at Fecteau-Leary", "ADDRESS": "33 North Common Street", "TOWN_MAIL": "Lynn", "TOWN": "LYNN", "ZIPCODE": "01902", "PHONE": "781-477-7220", "GRADES": "06,07,08,09,10,11,12", "TYPE": "SEC", "TYPE_DESC": "Public Secondary", "DIST_NAME": "Lynn", "DIST_CODE": "01630000", "MA_ADDR_ID": 3788025, "TYPE_DESC2": null, "lon": -70.955064002391921, "lat": 42.464487674844804, "DIST_CODE_8": "01630000", "ORG_CODE": null, "ORG_NAME": null, "SY": null, "TOTAL_CNT": null, "EL_PCT": null, "LI_PCT": null, "SWD_PCT": null, "HN_PCT": null, "HL_PCT": null, "BAA_PCT": null, "AS_PCT": null, "WH_PCT": null, "MNHL_PCT": null, "FLNE_PCT": null, "ECD_PCT": null }, "geometry": { "type": "Point", "coordinates": [ -70.955064002391921, 42.464487674844804 ] } },
{ "type": "Feature", "properties": { "SCHID": "01630625", "NAME": "TEAMS Academy at Virginia Barton Center", "ADDRESS": "112 Kernwood Drive", "TOWN_MAIL": "Lynn", "TOWN": "LYNN", "ZIPCODE": "01904", "PHONE": "781-477-7220", "GRADES": "PK,K,01,02,03,04,05,06,07,08,09,10,11,12", "TYPE": "UNK", "TYPE_DESC": "Public Unknown", "DIST_NAME": "Lynn", "DIST_CODE": "01630000", "MA_ADDR_ID": 3785176, "TYPE_DESC2": null, "lon": -70.970840110856798, "lat": 42.492522510797265, "DIST_CODE_8": "01630000", "ORG_CODE": null, "ORG_NAME": null, "SY": null, "TOTAL_CNT": null, "EL_PCT": null, "LI_PCT": null, "SWD_PCT": null, "HN_PCT": null, "HL_PCT": null, "BAA_PCT": null, "AS_PCT": null, "WH_PCT": null, "MNHL_PCT": null, "FLNE_PCT": null, "ECD_PCT": null }, "geometry": { "type": "Point", "coordinates": [ -70.970840110856798, 42.492522510797265 ] } }
]
}
